[{"OBJECT_NAME":"STARLINK-2270","OBJECT_ID":"2021-024Z","EPOCH":"2026-03-10T00:00:02.999808","MEAN_MOTION":15.15503403,"ECCENTRICITY":0.00016675,"INCLINATION":53.0914,"RA_OF_ASC_NODE":240.2006,"ARG_OF_PERICENTER":79.2002,"MEAN_ANOMALY":45.1048,"EPHEMERIS_TYPE":0,"CLASSIFICATION_TYPE":"U","NORAD_CAT_ID":48000,"ELEMENT_SET_NO":999,"REV_AT_EPOCH":568,"BSTAR":0.0047847248,"MEAN_MOTION_DOT":0.00092576,"MEAN_MOTION_DDOT":0},{"OBJECT_NAME":"AC1-001","OBJECT_ID":"2025-276CG","EPOCH":"2026-03-09T17:01:33.320352","MEAN_MOTION":15.17859032,"ECCENTRICITY":0.00029713,"INCLINATION":97.4276,"RA_OF_ASC_NODE":143.9133,"ARG_OF_PERICENTER":22.5153,"MEAN_ANOMALY":337.6211,"EPHEMERIS_TYPE":0,"CLASSIFICATION_TYPE":"U","NORAD_CAT_ID":66744,"ELEMENT_SET_NO":999,"REV_AT_EPOCH":1531,"BSTAR":0.00015685354,"MEAN_MOTION_DOT":3.109e-5,"MEAN_MOTION_DDOT":0}]
